STARLINK-36690          
1 67913U 26036K   26077.58334491 -.01948793  00000+0 -32968-1 0  9993
2 67913  43.0000 196.0626 0000813 283.8272 319.3719 15.53811443  5079
STARLINK-36724          
1 67914U 26036L   26077.58334491 -.01886822  00000+0 -32002-1 0  9997
2 67914  42.9998 196.0187 0001270 282.2949 338.7404 15.54173754  5071
STARLINK-36723          
1 67915U 26036M   26077.58334491 -.01887914  00000+0 -30461-1 0  9998
2 67915  42.9998 195.9519 0001193 273.1179  15.1010 15.55519588  5076
STARLINK-36721          
1 67916U 26036N   26077.58334491 -.01890537  00000+0 -30467-1 0  9990
2 67916  43.0001 195.9280 0001202 272.1244  25.4487 15.55556225  5073
STARLINK-36722          
1 67917U 26036P   26077.58334491 -.01897489  00000+0 -27174-1 0  9995
2 67917  43.0007 195.7509 0001599 278.1227  90.7204 15.58686599  5071
STARLINK-36341          
1 67918U 26036Q   26077.58334491  .00041126  00000+0  70378-3 0  9998
2 67918  43.0008 196.8358 0001703 279.1376   9.5751 15.50553658  5076
STARLINK-36663          
1 67919U 26036R   26077.58334491 -.01887390  00000+0 -30085-1 0  9992
2 67919  43.0006 195.8907 0001387 279.3934  33.2025 15.55841392  5072
STARLINK-36375          
1 67920U 26036S   26077.58334491  .00038657  00000+0  66264-3 0  9995
2 67920  43.0000 196.2296 0001728 273.4148 261.4478 15.50530091  5078
STARLINK-36405          
1 67921U 26036T   26077.58334491  .00034150  00000+0  58620-3 0  9997
2 67921  43.0007 196.8023 0001948 270.1935  32.8975 15.50539023  5078
STARLINK-36383          
1 67922U 26036U   26077.60015017  .00321566  00000+0  14644-2 0  9998
2 67922  42.9991 195.0069 0004068 254.7010 105.3413 15.82145854  5082
STARLINK-36406          
1 67923U 26036V   26077.58334491  .00050481  00000+0  86213-3 0  9993
2 67923  43.0002 197.0793 0001769 275.8808 275.0560 15.50533822  5076
STARLINK-36714          
1 67924U 26036W   26077.58334491  .00044107  00000+0  75503-3 0  9992
2 67924  43.0001 196.1459 0001723 294.6670 273.6340 15.50518285  5077
STARLINK-36726          
1 67925U 26036X   26077.58334491  .00065478  00000+0  11141-2 0  9994
2 67925  43.0008 196.7750 0001482 279.9206  33.9820 15.50540406  5078
STARLINK-36758          
1 67926U 26036Y   26077.58334491  .00037260  00000+0  63878-3 0  9998
2 67926  42.9999 196.2950 0001588 281.2042 226.4361 15.50540900  5072
STARLINK-36728          
1 67927U 26036Z   26077.58334491 -.00783196  00000+0 -14294-1 0  9993
2 67927  43.0001 196.0456 0001625 319.1282 289.7428 15.51010181  5077
STARLINK-36771          
1 67928U 26036AA  26077.58334491  .00049263  00000+0  84152-3 0  9994
2 67928  43.0004 196.1732 0001435 272.0392 285.1037 15.50536819  5073
