[{"OBJECT_NAME":"STARLINK-36690","OBJECT_ID":"2026-036K","EPOCH":"2026-03-18T14:00:01.000224","MEAN_MOTION":15.53811443,"ECCENTRICITY":8.133e-5,"INCLINATION":43,"RA_OF_ASC_NODE":196.0626,"ARG_OF_PERICENTER":283.8272,"MEAN_ANOMALY":319.3719,"EPHEMERIS_TYPE":0,"CLASSIFICATION_TYPE":"U","NORAD_CAT_ID":67913,"ELEMENT_SET_NO":999,"REV_AT_EPOCH":507,"BSTAR":-0.032967573,"MEAN_MOTION_DOT":-0.01948793,"MEAN_MOTION_DDOT":0},{"OBJECT_NAME":"STARLINK-36724","OBJECT_ID":"2026-036L","EPOCH":"2026-03-18T14:00:01.000224","MEAN_MOTION":15.54173754,"ECCENTRICITY":0.00012704,"INCLINATION":42.9998,"RA_OF_ASC_NODE":196.0187,"ARG_OF_PERICENTER":282.2949,"MEAN_ANOMALY":338.7404,"EPHEMERIS_TYPE":0,"CLASSIFICATION_TYPE":"U","NORAD_CAT_ID":67914,"ELEMENT_SET_NO":999,"REV_AT_EPOCH":507,"BSTAR":-0.032001506,"MEAN_MOTION_DOT":-0.01886822,"MEAN_MOTION_DDOT":0},{"OBJECT_NAME":"STARLINK-36723","OBJECT_ID":"2026-036M","EPOCH":"2026-03-18T14:00:01.000224","MEAN_MOTION":15.55519588,"ECCENTRICITY":0.00011932,"INCLINATION":42.9998,"RA_OF_ASC_NODE":195.9519,"ARG_OF_PERICENTER":273.1179,"MEAN_ANOMALY":15.101,"EPHEMERIS_TYPE":0,"CLASSIFICATION_TYPE":"U","NORAD_CAT_ID":67915,"ELEMENT_SET_NO":999,"REV_AT_EPOCH":507,"BSTAR":-0.030461201,"MEAN_MOTION_DOT":-0.01887914,"MEAN_MOTION_DDOT":0},{"OBJECT_NAME":"STARLINK-36721","OBJECT_ID":"2026-036N","EPOCH":"2026-03-18T14:00:01.000224","MEAN_MOTION":15.55556225,"ECCENTRICITY":0.00012024,"INCLINATION":43.0001,"RA_OF_ASC_NODE":195.928,"ARG_OF_PERICENTER":272.1244,"MEAN_ANOMALY":25.4487,"EPHEMERIS_TYPE":0,"CLASSIFICATION_TYPE":"U","NORAD_CAT_ID":67916,"ELEMENT_SET_NO":999,"REV_AT_EPOCH":507,"BSTAR":-0.030467349,"MEAN_MOTION_DOT":-0.01890537,"MEAN_MOTION_DDOT":0},{"OBJECT_NAME":"STARLINK-36722","OBJECT_ID":"2026-036P","EPOCH":"2026-03-18T14:00:01.000224","MEAN_MOTION":15.58686599,"ECCENTRICITY":0.00015992,"INCLINATION":43.0007,"RA_OF_ASC_NODE":195.7509,"ARG_OF_PERICENTER":278.1227,"MEAN_ANOMALY":90.7204,"EPHEMERIS_TYPE":0,"CLASSIFICATION_TYPE":"U","NORAD_CAT_ID":67917,"ELEMENT_SET_NO":999,"REV_AT_EPOCH":507,"BSTAR":-0.027173588,"MEAN_MOTION_DOT":-0.01897489,"MEAN_MOTION_DDOT":0},{"OBJECT_NAME":"STARLINK-36341","OBJECT_ID":"2026-036Q","EPOCH":"2026-03-18T14:00:01.000224","MEAN_MOTION":15.50553658,"ECCENTRICITY":0.00017035,"INCLINATION":43.0008,"RA_OF_ASC_NODE":196.8358,"ARG_OF_PERICENTER":279.1376,"MEAN_ANOMALY":9.5751,"EPHEMERIS_TYPE":0,"CLASSIFICATION_TYPE":"U","NORAD_CAT_ID":67918,"ELEMENT_SET_NO":999,"REV_AT_EPOCH":507,"BSTAR":0.00070377702,"MEAN_MOTION_DOT":0.00041126,"MEAN_MOTION_DDOT":0},{"OBJECT_NAME":"STARLINK-36663","OBJECT_ID":"2026-036R","EPOCH":"2026-03-18T14:00:01.000224","MEAN_MOTION":15.55841392,"ECCENTRICITY":0.00013871,"INCLINATION":43.0006,"RA_OF_ASC_NODE":195.8907,"ARG_OF_PERICENTER":279.3934,"MEAN_ANOMALY":33.2025,"EPHEMERIS_TYPE":0,"CLASSIFICATION_TYPE":"U","NORAD_CAT_ID":67919,"ELEMENT_SET_NO":999,"REV_AT_EPOCH":507,"BSTAR":-0.030085141,"MEAN_MOTION_DOT":-0.0188739,"MEAN_MOTION_DDOT":0},{"OBJECT_NAME":"STARLINK-36375","OBJECT_ID":"2026-036S","EPOCH":"2026-03-18T14:00:01.000224","MEAN_MOTION":15.50530091,"ECCENTRICITY":0.0001728,"INCLINATION":43,"RA_OF_ASC_NODE":196.2296,"ARG_OF_PERICENTER":273.4148,"MEAN_ANOMALY":261.4478,"EPHEMERIS_TYPE":0,"CLASSIFICATION_TYPE":"U","NORAD_CAT_ID":67920,"ELEMENT_SET_NO":999,"REV_AT_EPOCH":507,"BSTAR":0.00066263531,"MEAN_MOTION_DOT":0.00038657,"MEAN_MOTION_DDOT":0},{"OBJECT_NAME":"STARLINK-36405","OBJECT_ID":"2026-036T","EPOCH":"2026-03-18T14:00:01.000224","MEAN_MOTION":15.50539023,"ECCENTRICITY":0.0001948,"INCLINATION":43.0007,"RA_OF_ASC_NODE":196.8023,"ARG_OF_PERICENTER":270.1935,"MEAN_ANOMALY":32.8975,"EPHEMERIS_TYPE":0,"CLASSIFICATION_TYPE":"U","NORAD_CAT_ID":67921,"ELEMENT_SET_NO":999,"REV_AT_EPOCH":507,"BSTAR":0.00058620181,"MEAN_MOTION_DOT":0.0003415,"MEAN_MOTION_DDOT":0},{"OBJECT_NAME":"STARLINK-36383","OBJECT_ID":"2026-036U","EPOCH":"2026-03-18T14:24:12.974688","MEAN_MOTION":15.82145854,"ECCENTRICITY":0.00040688,"INCLINATION":42.9991,"RA_OF_ASC_NODE":195.0069,"ARG_OF_PERICENTER":254.701,"MEAN_ANOMALY":105.3413,"EPHEMERIS_TYPE":0,"CLASSIFICATION_TYPE":"U","NORAD_CAT_ID":67922,"ELEMENT_SET_NO":999,"REV_AT_EPOCH":508,"BSTAR":0.0014644073,"MEAN_MOTION_DOT":0.00321566,"MEAN_MOTION_DDOT":0},{"OBJECT_NAME":"STARLINK-36406","OBJECT_ID":"2026-036V","EPOCH":"2026-03-18T14:00:01.000224","MEAN_MOTION":15.50533822,"ECCENTRICITY":0.00017694,"INCLINATION":43.0002,"RA_OF_ASC_NODE":197.0793,"ARG_OF_PERICENTER":275.8808,"MEAN_ANOMALY":275.056,"EPHEMERIS_TYPE":0,"CLASSIFICATION_TYPE":"U","NORAD_CAT_ID":67923,"ELEMENT_SET_NO":999,"REV_AT_EPOCH":507,"BSTAR":0.00086212506,"MEAN_MOTION_DOT":0.00050481,"MEAN_MOTION_DDOT":0},{"OBJECT_NAME":"STARLINK-36714","OBJECT_ID":"2026-036W","EPOCH":"2026-03-18T14:00:01.000224","MEAN_MOTION":15.50518285,"ECCENTRICITY":0.00017239,"INCLINATION":43.0001,"RA_OF_ASC_NODE":196.1459,"ARG_OF_PERICENTER":294.667,"MEAN_ANOMALY":273.634,"EPHEMERIS_TYPE":0,"CLASSIFICATION_TYPE":"U","NORAD_CAT_ID":67924,"ELEMENT_SET_NO":999,"REV_AT_EPOCH":507,"BSTAR":0.0007550283,"MEAN_MOTION_DOT":0.00044107,"MEAN_MOTION_DDOT":0},{"OBJECT_NAME":"STARLINK-36726","OBJECT_ID":"2026-036X","EPOCH":"2026-03-18T14:00:01.000224","MEAN_MOTION":15.50540406,"ECCENTRICITY":0.00014821,"INCLINATION":43.0008,"RA_OF_ASC_NODE":196.775,"ARG_OF_PERICENTER":279.9206,"MEAN_ANOMALY":33.982,"EPHEMERIS_TYPE":0,"CLASSIFICATION_TYPE":"U","NORAD_CAT_ID":67925,"ELEMENT_SET_NO":999,"REV_AT_EPOCH":507,"BSTAR":0.0011141488,"MEAN_MOTION_DOT":0.00065478,"MEAN_MOTION_DDOT":0},{"OBJECT_NAME":"STARLINK-36758","OBJECT_ID":"2026-036Y","EPOCH":"2026-03-18T14:00:01.000224","MEAN_MOTION":15.505409,"ECCENTRICITY":0.00015881,"INCLINATION":42.9999,"RA_OF_ASC_NODE":196.295,"ARG_OF_PERICENTER":281.2042,"MEAN_ANOMALY":226.4361,"EPHEMERIS_TYPE":0,"CLASSIFICATION_TYPE":"U","NORAD_CAT_ID":67926,"ELEMENT_SET_NO":999,"REV_AT_EPOCH":507,"BSTAR":0.00063877725,"MEAN_MOTION_DOT":0.0003726,"MEAN_MOTION_DDOT":0},{"OBJECT_NAME":"STARLINK-36728","OBJECT_ID":"2026-036Z","EPOCH":"2026-03-18T14:00:01.000224","MEAN_MOTION":15.51010181,"ECCENTRICITY":0.00016257,"INCLINATION":43.0001,"RA_OF_ASC_NODE":196.0456,"ARG_OF_PERICENTER":319.1282,"MEAN_ANOMALY":289.7428,"EPHEMERIS_TYPE":0,"CLASSIFICATION_TYPE":"U","NORAD_CAT_ID":67927,"ELEMENT_SET_NO":999,"REV_AT_EPOCH":507,"BSTAR":-0.01429363,"MEAN_MOTION_DOT":-0.00783196,"MEAN_MOTION_DDOT":0},{"OBJECT_NAME":"STARLINK-36771","OBJECT_ID":"2026-036AA","EPOCH":"2026-03-18T14:00:01.000224","MEAN_MOTION":15.50536819,"ECCENTRICITY":0.00014353,"INCLINATION":43.0004,"RA_OF_ASC_NODE":196.1732,"ARG_OF_PERICENTER":272.0392,"MEAN_ANOMALY":285.1037,"EPHEMERIS_TYPE":0,"CLASSIFICATION_TYPE":"U","NORAD_CAT_ID":67928,"ELEMENT_SET_NO":999,"REV_AT_EPOCH":507,"BSTAR":0.00084151683,"MEAN_MOTION_DOT":0.00049263,"MEAN_MOTION_DDOT":0}]
